DUBAISAT-1              
1 35682U 09041B   26196.91716609  .00000375  00000+0  63132-4 0  9994
2 35682  98.0086 329.8660 0009889 346.2554  13.8385 14.75167272909338
OCEANSAT-2              
1 35931U 09051A   26197.22290527 -.00000060  00000+0 -15505-4 0  9997
2 35931  98.2320 181.1754 0017405 150.5265 209.6887 13.99655946883393
WORLDVIEW-2 (WV-2)      
1 35946U 09055A   26197.25069085  .00000043  00000+0  28709-4 0  9992
2 35946  98.4756 270.3046 0005353 127.2925 232.8751 14.37907096879822
SMOS                    
1 36036U 09059A   26197.09987059  .00000118  00000+0  51707-4 0  9996
2 36036  98.4429  24.0111 0001164  97.2447 262.8874 14.39736354877611
YAOGAN-7                
1 36110U 09069A   26197.19925676  .00000184  00000+0  32789-4 0  9990
2 36110  98.0031  82.8821 0023449 307.9538  51.9554 14.78035992893917
TANDEM-X                
1 36605U 10030A   26188.47915494  .00000386  00000+0  21566-4 0  9992
2 36605  97.4457 195.8973 0001887  94.3019 265.8431 15.19154052889726
CARTOSAT-2B             
1 36795U 10035A   26197.30283778  .00000272  00000+0  44273-4 0  9996
2 36795  97.9938 247.6636 0012706  96.5827 263.6831 14.78651478864158
YAOGAN-10               
1 36834U 10038A   26197.32879536  .00001406  00000+0  16944-3 0  9991
2 36834  97.8966 220.5011 0001696  82.7260  38.9666 14.85433996861532
COSMO-SKYMED 4          
1 37216U 10060A   26197.27075184  .00000398  00000+0  56539-4 0  9996
2 37216  97.8887  20.4493 0001497  87.6570 272.4815 14.82149535848870
RESOURCESAT-2           
1 37387U 11015A   26197.22750905  .00000022  00000+0  30407-4 0  9992
2 37387  98.7632 264.4666 0011610 168.1912 191.9539 14.21599672790308
RASAT                   
1 37791U 11044D   26197.28298719 -.00000048  00000+0  15056-6 0  9993
2 37791  98.0587 288.2360 0021936  99.5273 345.4998 14.68192470797457
SRMSAT                  
1 37841U 11058D   26197.27526105  .00000330  00000+0  35417-4 0  9990
2 37841  19.9709 243.4089 0011726 163.0492 264.2388 14.11581223761939
PLEIADES 1A             
1 38012U 11076F   26197.28725897  .00000079  00000+0  26887-4 0  9992
2 38012  98.1974 271.9975 0001655  78.9433  12.6878 14.58547099776234
ZIYUAN 1-02C (ZY 1-02C) 
1 38038U 11079A   26197.30007279  .00000265  00000+0  10132-3 0  9995
2 38038  98.4064 263.9986 0005644 210.9958 236.5997 14.38236494763394
ARIRANG-3 (KOMPSAT-3)   
1 38338U 12025B   26197.25231256  .00000176  00000+0  44257-4 0  9995
2 38338  98.1185 154.2138 0006161  36.0894 324.0722 14.62229488755594
EXACTVIEW-1 (ADS-1B)    
1 38709U 12039C   26196.88872129  .00000035  00000+0  34982-4 0  9998
2 38709  98.9806 314.9310 0011955  89.7225 270.5323 14.24992315726797
SPOT 6                  
1 38755U 12047A   26197.28520147 -.00000021  00000+0  52610-5 0  9998
2 38755  98.2111 264.2514 0001118  87.1688 272.9639 14.58538762737290
PLEIADES 1B             
1 39019U 12068A   26197.30380089 -.00000031  00000+0  31656-5 0  9995
2 39019  98.1945 271.9529 0001564  79.0322 281.1053 14.58534246725099
GOKTURK 2               
1 39030U 12073A   26197.30792883  .00000211  00000+0  37805-4 0  9993
2 39030  97.6804  33.2782 0000941  97.2843 262.8474 14.75568437728801
LANDSAT 8               
1 39084U 13008A   26197.20944103  .00000146  00000+0  42523-4 0  9994
2 39084  98.2290 266.9980 0001360  92.6241 267.5113 14.57094495702125
SARAL                   
1 39086U 13009A   26197.29958120  .00000019  00000+0  23147-4 0  9990
2 39086  98.5556  23.4988 0001761 163.9147 196.2094 14.32895955699776
GAOFEN-1                
1 39150U 13018A   26197.27091109 -.00000168  00000+0 -16773-4 0  9999
2 39150  97.9089 268.7458 0017125 167.7381 192.4249 14.76518116712530
VNREDSAT 1              
1 39160U 13021B   26197.32414876  .00000261  00000+0  57278-4 0  9997
2 39160  97.9065 249.6199 0001577  79.4621 280.6761 14.64884602704550
ARIRANG-5 (KOMPSAT-5)   
1 39227U 13042A   26197.29668848  .00000101  00000+0  11557-4 0  9993
2 39227  97.6202  23.5881 0005321  55.1345 305.0381 15.04495046708230
SKYSAT-A                
1 39418U 13066C   26197.09161266  .00001469  00000+0  86164-4 0  9995
2 39418  97.3803 245.5676 0020616 210.1814 149.8231 15.13117895692853
DUBAISAT-2              
1 39419U 13066D   26197.22273870  .00002372  00000+0  14822-3 0  9991
2 39419  97.4577 186.6122 0009226 299.2690  60.7617 15.10381137690775
GPM-CORE                
1 39574U 14009C   26197.27592351  .00003013  00000+0  68842-4 0  9999
2 39574  64.9691 210.6643 0010928 262.4228  97.5671 15.45050158702304
SENTINEL-1A             
1 39634U 14016A   26197.30461888  .00000182  00000+0  48342-4 0  9995
2 39634  98.1768 204.4124 0001426  85.7195 274.4167 14.59196633654262
KAZEOSAT 1              
1 39731U 14024A   26197.30234529  .00000001  00000+0  13332-4 0  9993
2 39731  98.3202 269.0234 0001219  83.1868 276.9460 14.42037391642754
